H1 CPF  1  JAX 2020 02 23 03  5541 ajisai     NONE      
H2  8606101 1500 16908    2020 02 22 00 00 00 2020 02 27 00 00 00   240 1 1  0 0 0
H9
10 0 58902  28800.000000  0      -6006122.620       1525392.838       4822245.233
10 0 58902  29040.000000  0      -5616105.030         98215.532       5484790.587
10 0 58902  29280.000000  0      -5013088.626      -1350948.731       5887958.344
10 0 58902  29520.000000  0      -4225091.439      -2761125.204       6012730.655
10 0 58902  29760.000000  0      -3286682.336      -4072100.223       5853271.590
10 0 58902  30000.000000  0      -2237417.476      -5227047.208       5417187.739
10 0 58902  30240.000000  0      -1120141.085      -6175045.261       4725158.344
10 0 58902  30480.000000  0         20780.349      -6873388.078       3809954.341
10 0 58902  30720.000000  0       1141226.441      -7289575.469       2714880.868
10 0 58902  30960.000000  0       2199024.228      -7402884.252       1491711.534
10 0 58902  31200.000000  0       3155517.035      -7205430.609        198209.805
10 0 58902  31440.000000  0       3976935.820      -6702656.694      -1104640.570
10 0 58902  31680.000000  0       4635517.912      -5913207.492      -2355551.702
10 0 58902  31920.000000  0       5110333.464      -4868202.108      -3495837.617
10 0 58902  32160.000000  0       5387799.379      -3609944.177      -4472160.209
10 0 58902  32400.000000  0       5461882.782      -2190146.657      -5238981.655
10 0 58902  32640.000000  0       5334017.445       -667767.433      -5760618.733
10 0 58902  32880.000000  0       5012769.561        893445.429      -6012826.861
10 0 58902  33120.000000  0       4513289.052       2427600.340      -5983863.523
10 0 58902  33360.000000  0       3856585.961       3869400.992      -5675004.188
10 0 58902  33600.000000  0       3068668.020       5156888.821      -5100500.682
10 0 58902  33840.000000  0       2179563.664       6234099.234      -4286978.545
10 0 58902  34080.000000  0       1222251.549       7053530.476      -3272281.717
10 0 58902  34320.000000  0        231519.279       7578318.135      -2103792.834
10 0 58902  34560.000000  0       -757222.790       7784001.284       -836279.336
10 0 58902  34800.000000  0      -1709135.015       7659772.161        470647.479
10 0 58902  35040.000000  0      -2591111.779       7209130.602       1755345.900
10 0 58902  35280.000000  0      -3372877.728       6449879.219       2957098.704
10 0 58902  35520.000000  0      -4027967.956       5413432.367       4019044.740
10 0 58902  35760.000000  0      -4534553.614       4143476.764       4890922.458
10 0 58902  36000.000000  0      -4876090.492       2694057.813       5531483.354
10 0 58902  36240.000000  0      -5041778.050       1127189.838       5910456.540
10 0 58902  36480.000000  0      -5026824.446       -489886.460       6009972.008
10 0 58902  36720.000000  0      -4832524.847      -2087665.929       5825388.550
10 0 58902  36960.000000  0      -4466164.926      -3597432.990       5365500.397
10 0 58902  37200.000000  0      -3940755.769      -4954284.685       4652114.079
10 0 58902  37440.000000  0      -3274603.663      -6099989.503       3719011.066
10 0 58902  37680.000000  0      -2490726.208      -6985556.353       2610341.850
10 0 58902  37920.000000  0      -1616122.752      -7573395.015       1378518.892
10 0 58902  38160.000000  0       -680914.585      -7838958.530         81707.183
10 0 58902  38400.000000  0        282622.282      -7771781.911      -1218964.583
10 0 58902  38640.000000  0       1241099.551      -7375860.180      -2462325.968
10 0 58902  38880.000000  0       2161094.363      -6669356.334      -3590061.394
10 0 58902  39120.000000  0       3010225.032      -5683674.750      -4549434.277
10 0 58902  39360.000000  0       3758193.223      -4461966.647      -5295709.623
10 0 58902  39600.000000  0       4377764.745      -3057159.294      -5794169.661
10 0 58902  39840.000000  0       4845666.263      -1529619.764      -6021649.001
10 0 58902  40080.000000  0       5143388.423         55436.870      -5967549.812
10 0 58902  40320.000000  0       5257884.000       1630700.975      -5634311.306
10 0 58902  40560.000000  0       5182142.199       3129585.907      -5037316.710
10 0 58902  40800.000000  0       4915618.526       4489014.048      -4204240.882
10 0 58902  41040.000000  0       4464491.121       5652078.277      -3173848.816
10 0 58902  41280.000000  0       3841708.213       6570472.074      -1994271.398
10 0 58902  41520.000000  0       3066795.692       7206576.252       -720814.919
10 0 58902  41760.000000  0       2165401.717       7535094.656        586611.944
10 0 58902  42000.000000  0       1168569.421       7544138.192       1866335.554
10 0 58902  42240.000000  0        111755.309       7235689.671       3057871.220
10 0 58902  42480.000000  0       -966376.279       6625424.969       4104839.217
10 0 58902  42720.000000  0      -2025341.574       5741897.542       4957687.255
10 0 58902  42960.000000  0      -3024347.590       4625132.688       5576070.041
10 0 58902  43200.000000  0      -3923857.600       3324726.428       5930765.807
10 0 58902  43440.000000  0      -4687159.455       1897557.259       6005052.598
10 0 58902  43680.000000  0      -5281878.086        405218.083       5795484.406
10 0 58902  43920.000000  0      -5681370.949      -1088709.288       5312037.619
10 0 58902  44160.000000  0      -5865952.345      -2521417.298       4577630.229
10 0 58902  44400.000000  0      -5823894.214      -3833564.195       3627034.496
10 0 58902  44640.000000  0      -5552144.394      -4971781.947       2505224.350
10 0 58902  44880.000000  0      -5056713.741      -5890888.583       1265228.518
10 0 58902  45120.000000  0      -4352692.944      -6555702.480        -34410.755
10 0 58902  45360.000000  0      -3463880.063      -6942373.165      -1332443.876
10 0 58902  45600.000000  0      -2422024.302      -7039170.473      -2567838.484
10 0 58902  45840.000000  0      -1265714.324      -6846707.695      -3682667.330
10 0 58902  46080.000000  0        -38960.662      -6377610.532      -4624811.104
10 0 58902  46320.000000  0       1210461.859      -5655677.656      -5350346.958
10 0 58902  46560.000000  0       2432841.441      -4714606.244      -5825523.928
10 0 58902  46800.000000  0       3578460.166      -3596366.714      -6028257.749
10 0 58902  47040.000000  0       4599566.056      -2349310.142      -5949098.240
10 0 58902  47280.000000  0       5452321.607      -1026092.910      -5591644.815
10 0 58902  47520.000000  0       6098670.394        318506.129      -4972405.552
10 0 58902  47760.000000  0       6508058.262       1629809.283      -4120095.838
10 0 58902  48000.000000  0       6658932.035       2855430.613      -3074387.894
10 0 58902  48240.000000  0       6539938.865       3947359.472      -1884145.197
10 0 58902  48480.000000  0       6150741.703       4863857.637       -605192.927
10 0 58902  48720.000000  0       5502375.896       5571079.625        702284.553
10 0 58902  48960.000000  0       4617100.745       6044339.151       1976596.061
10 0 58902  49200.000000  0       3527724.404       6268959.387       3157502.980
10 0 58902  49440.000000  0       2276415.789       6240664.096       4189126.643
10 0 58902  49680.000000  0        913055.360       5965499.424       5022642.973
10 0 58902  49920.000000  0       -506797.013       5459308.011       5618625.327
10 0 58902  50160.000000  0      -1924221.224       4746800.415       5948917.314
10 0 58902  50400.000000  0      -3279433.529       3860293.819       5997951.534
10 0 58902  50640.000000  0      -4514355.582       2838193.205       5763471.407
10 0 58902  50880.000000  0      -5575157.682       1723284.901       5256628.981
10 0 58902  51120.000000  0      -6414666.635        560913.033       4501449.241
10 0 58902  51360.000000  0      -6994525.976       -602883.503       3533685.868
10 0 58902  51600.000000  0      -7287010.691      -1723200.283       2399121.339
10 0 58902  51840.000000  0      -7276403.791      -2757995.425       1151382.407
10 0 58902  52080.000000  0      -6959850.075      -3669647.235       -150629.892
10 0 58902  52320.000000  0      -6347628.824      -4426275.240      -1445563.956
10 0 58902  52560.000000  0      -5462825.510      -5002771.987      -2672546.398
10 0 58902  52800.000000  0      -4340418.246      -5381510.612      -3774059.683
10 0 58902  53040.000000  0      -3025834.934      -5552717.300      -4698620.450
10 0 58902  53280.000000  0      -1573062.068      -5514521.169      -5403135.082
10 0 58902  53520.000000  0        -42399.696      -5272710.645      -5854835.320
10 0 58902  53760.000000  0       1502036.184      -4840236.707      -6032726.226
10 0 58902  54000.000000  0       2994965.618      -4236507.940      -5928506.123
10 0 58902  54240.000000  0       4372662.137      -3486519.381      -5546936.724
10 0 58902  54480.000000  0       5575645.663      -2619847.061      -4905649.418
10 0 58902  54720.000000  0       6551252.961      -1669540.236      -4034391.986
10 0 58902  54960.000000  0       7255992.570       -670937.282      -2973732.622
10 0 58902  55200.000000  0       7657574.779        339571.359      -1773249.197
10 0 58902  55440.000000  0       7736504.706       1325798.602       -489264.578
10 0 58902  55680.000000  0       7487136.698       2252996.752        817782.433
10 0 58902  55920.000000  0       6918106.282       3089029.461       2086207.218
10 0 58902  56160.000000  0       6052094.456       3805431.094       3256040.823
10 0 58902  56400.000000  0       4924924.816       4378311.635       4271924.466
10 0 58902  56640.000000  0       3584033.910       4789077.017       5085779.656
10 0 58902  56880.000000  0       2086396.004       5024946.165       5659113.124
10 0 58902  57120.000000  0        496011.298       5079255.545       5964843.768
10 0 58902  57360.000000  0      -1118912.663       4951559.760       5988570.654
99